STARLINK-3697           
1 51962U 22025G   26068.20356615 -.00000302  00000+0  18600-5 0  9999
2 51962  53.1570  26.3329 0001382  87.4855 272.6303 15.29354232220948
NUSAT-48 (HENRIETTA LE*)
1 60498U 24149AG  26068.80506098  .00012988  00000+0  45212-3 0  9999
2 60498  97.3923 150.8264 0002754 263.3026  96.7901 15.29812597 86946
